STARLINK-31895          
1 59849U 24097Q   26068.00613128 -.00001596  00000+0 -48490-4 0  9991
2 59849  42.9976 278.1021 0000971 290.4922  69.5825 15.27577588101811
2025-313BC              
1 67298U 25313BC  26068.18968176  .00075331  00000+0  26410-2 0  9997
2 67298  97.3985 144.8110 0008478 328.9209  31.1528 15.29126358  7890
